{"type": "FeatureCollection", "features": [{"type": "Feature", "id": 1462, "geometry": {"type": "Point", "coordinates": [-95.5644, 29.7206]}, "properties": {"OBJECTID": null, "Site_Name": "Crystal Chemical Co.", "Site_Score": 60.9, "Site_EPA_ID": "TXD990707010", "SEMS_ID": 603555, "SITS_ID": 777, "Region_ID": 6, "State": "Texas", "City": "Houston", "County": "Harris", "Status": "NPL Site", "Longitude": -95.5644, "Latitude": 29.7206, "Proposed_Date": "12/30/1982", "Listing_Date": "09/08/1983", "Construction_Completion_Date": "10/02/2003", "Construction_Completion_Number": 887, "NOID_Date": null, "Deletion_Date": null, "Site_Listing_Narrative": "<a href=\"https://semspub.epa.gov/src/document/06/300361\" target=\"_blank\">TXD990707010 (PDF)</a>", "Site_Progress_Profile": "<a href=\"https://cumulis.epa.gov/supercpad/cursites/csitinfo.cfm?id=0603555\" target=\"_blank\">Crystal Chemical Co.</a>", "Notice_of_Data_Availability": null, "Proposed_FR_Notice": "<a href=\"https://semspub.epa.gov/src/document/11/189619\" target=\"_blank\">12/30/1982 (PDF)</a>", "Deletion_FR_Notice": null, "Final_FR_Notice": "<a href=\"https://semspub.epa.gov/src/document/11/189620\" target=\"_blank\">09/08/1983 (PDF)</a>", "NOID_FR_Notice": null, "Restoration_FR_Notice_Jumper_Page": null, "Site_has_had_a_Partial_Deletion": "No", "CreationDate": null, "Creator": null, "EditDate": null, "Editor": null, "ObjectId2": 1462, "dma_county": "Harris"}}, {"type": "Feature", "id": 1463, "geometry": {"type": "Point", "coordinates": [-95.0739, 29.8796]}, "properties": {"OBJECTID": null, "Site_Name": "French, Ltd.", "Site_Score": 63.33, "Site_EPA_ID": "TXD980514814", "SEMS_ID": 602498, "SITS_ID": 778, "Region_ID": 6, "State": "Texas", "City": "Crosby", "County": "Harris", "Status": "NPL Site", "Longitude": -95.0739, "Latitude": 29.8796, "Proposed_Date": "12/30/1982", "Listing_Date": "09/08/1983", "Construction_Completion_Date": "09/26/1994", "Construction_Completion_Number": 267, "NOID_Date": null, "Deletion_Date": null, "Site_Listing_Narrative": "<a href=\"https://semspub.epa.gov/src/document/06/300362\" target=\"_blank\">TXD980514814 (PDF)</a>", "Site_Progress_Profile": "<a href=\"https://cumulis.epa.gov/supercpad/cursites/csitinfo.cfm?id=0602498\" target=\"_blank\">French, Ltd.</a>", "Notice_of_Data_Availability": null, "Proposed_FR_Notice": "<a href=\"https://semspub.epa.gov/src/document/11/189619\" target=\"_blank\">12/30/1982 (PDF)</a>", "Deletion_FR_Notice": null, "Final_FR_Notice": "<a href=\"https://semspub.epa.gov/src/document/11/189620\" target=\"_blank\">09/08/1983 (PDF)</a>", "NOID_FR_Notice": null, "Restoration_FR_Notice_Jumper_Page": null, "Site_has_had_a_Partial_Deletion": "No", "CreationDate": null, "Creator": null, "EditDate": null, "Editor": null, "ObjectId2": 1463, "dma_county": "Harris"}}, {"type": "Feature", "id": 1464, "geometry": {"type": "Point", "coordinates": [-95.1627, 29.6244]}, "properties": {"OBJECTID": null, "Site_Name": "Harris (Farley Street)", "Site_Score": 33.94, "Site_EPA_ID": "TXD980745582", "SEMS_ID": 602804, "SITS_ID": 779, "Region_ID": 6, "State": "Texas", "City": "Houston", "County": "Harris", "Status": "Deleted NPL Site", "Longitude": -95.1627, "Latitude": 29.6244, "Proposed_Date": "12/30/1982", "Listing_Date": "09/08/1983", "Construction_Completion_Date": "04/18/1988", "Construction_Completion_Number": 26, "NOID_Date": "09/03/1987", "Deletion_Date": "04/18/1988", "Site_Listing_Narrative": "<a href=\"https://semspub.epa.gov/src/document/06/300363\" target=\"_blank\">TXD980745582 (PDF)</a>", "Site_Progress_Profile": "<a href=\"https://cumulis.epa.gov/supercpad/cursites/csitinfo.cfm?id=0602804\" target=\"_blank\">Harris (Farley Street)</a>", "Notice_of_Data_Availability": null, "Proposed_FR_Notice": "<a href=\"https://semspub.epa.gov/src/document/11/189619\" target=\"_blank\">12/30/1982 (PDF)</a>", "Deletion_FR_Notice": "<a href=\"https://semspub.epa.gov/src/document/11/189622\" target=\"_blank\">04/18/1988 (PDF)</a>", "Final_FR_Notice": "<a href=\"https://semspub.epa.gov/src/document/11/189620\" target=\"_blank\">09/08/1983 (PDF)</a>", "NOID_FR_Notice": "<a href=\"https://semspub.epa.gov/src/document/06/300085\" target=\"_blank\">09/03/1987 (PDF)</a>", "Restoration_FR_Notice_Jumper_Page": null, "Site_has_had_a_Partial_Deletion": "No", "CreationDate": null, "Creator": null, "EditDate": null, "Editor": null, "ObjectId2": 1464, "dma_county": "Harris"}}, {"type": "Feature", "id": 1465, "geometry": {"type": "Point", "coordinates": [-95.0786, 29.8141]}, "properties": {"OBJECTID": null, "Site_Name": "Highlands Acid Pit", "Site_Score": 37.77, "Site_EPA_ID": "TXD980514996", "SEMS_ID": 602505, "SITS_ID": 780, "Region_ID": 6, "State": "Texas", "City": "Highlands", "County": "Harris", "Status": "NPL Site", "Longitude": -95.0786, "Latitude": 29.8141, "Proposed_Date": "12/30/1982", "Listing_Date": "09/08/1983", "Construction_Completion_Date": "06/29/1992", "Construction_Completion_Number": 95, "NOID_Date": null, "Deletion_Date": null, "Site_Listing_Narrative": "<a href=\"https://semspub.epa.gov/src/document/06/300364\" target=\"_blank\">TXD980514996 (PDF)</a>", "Site_Progress_Profile": "<a href=\"https://cumulis.epa.gov/supercpad/cursites/csitinfo.cfm?id=0602505\" target=\"_blank\">Highlands Acid Pit</a>", "Notice_of_Data_Availability": null, "Proposed_FR_Notice": "<a href=\"https://semspub.epa.gov/src/document/11/189619\" target=\"_blank\">12/30/1982 (PDF)</a>", "Deletion_FR_Notice": null, "Final_FR_Notice": "<a href=\"https://semspub.epa.gov/src/document/11/189620\" target=\"_blank\">09/08/1983 (PDF)</a>", "NOID_FR_Notice": null, "Restoration_FR_Notice_Jumper_Page": null, "Site_has_had_a_Partial_Deletion": "No", "CreationDate": null, "Creator": null, "EditDate": null, "Editor": null, "ObjectId2": 1465, "dma_county": "Harris"}}, {"type": "Feature", "id": 1466, "geometry": {"type": "Point", "coordinates": [-94.933331, 29.334719]}, "properties": {"OBJECTID": null, "Site_Name": "Motco, Inc.", "Site_Score": 0, "Site_EPA_ID": "TXD980629851", "SEMS_ID": 602673, "SITS_ID": 781, "Region_ID": 6, "State": "Texas", "City": "La Marque", "County": "Galveston", "Status": "NPL Site", "Longitude": -94.933331, "Latitude": 29.334719, "Proposed_Date": "12/30/1982", "Listing_Date": "09/08/1983", "Construction_Completion_Date": "09/30/1997", "Construction_Completion_Number": 483, "NOID_Date": null, "Deletion_Date": null, "Site_Listing_Narrative": "<a href=\"https://semspub.epa.gov/src/document/06/300365\" target=\"_blank\">TXD980629851 (PDF)</a>", "Site_Progress_Profile": "<a href=\"https://cumulis.epa.gov/supercpad/cursites/csitinfo.cfm?id=0602673\" target=\"_blank\">Motco, Inc.</a>", "Notice_of_Data_Availability": null, "Proposed_FR_Notice": "<a href=\"https://semspub.epa.gov/src/document/11/189619\" target=\"_blank\">12/30/1982 (PDF)</a>", "Deletion_FR_Notice": null, "Final_FR_Notice": "<a href=\"https://semspub.epa.gov/src/document/11/189620\" target=\"_blank\">09/08/1983 (PDF)</a>", "NOID_FR_Notice": null, "Restoration_FR_Notice_Jumper_Page": null, "Site_has_had_a_Partial_Deletion": "No", "CreationDate": null, "Creator": null, "EditDate": null, "Editor": null, "ObjectId2": 1466, "dma_county": "Galveston"}}, {"type": "Feature", "id": 1479, "geometry": {"type": "Point", "coordinates": [-95.086669, 29.881669]}, "properties": {"OBJECTID": null, "Site_Name": "Sikes Disposal Pits", "Site_Score": 61.62, "Site_EPA_ID": "TXD980513956", "SEMS_ID": 602488, "SITS_ID": 783, "Region_ID": 6, "State": "Texas", "City": "Crosby", "County": "Harris", "Status": "NPL Site", "Longitude": -95.086669, "Latitude": 29.881669, "Proposed_Date": "12/30/1982", "Listing_Date": "09/08/1983", "Construction_Completion_Date": "01/30/1995", "Construction_Completion_Number": 288, "NOID_Date": null, "Deletion_Date": null, "Site_Listing_Narrative": "<a href=\"https://semspub.epa.gov/src/document/06/300367\" target=\"_blank\">TXD980513956 (PDF)</a>", "Site_Progress_Profile": "<a href=\"https://cumulis.epa.gov/supercpad/cursites/csitinfo.cfm?id=0602488\" target=\"_blank\">Sikes Disposal Pits</a>", "Notice_of_Data_Availability": null, "Proposed_FR_Notice": "<a href=\"https://semspub.epa.gov/src/document/11/189619\" target=\"_blank\">12/30/1982 (PDF)</a>", "Deletion_FR_Notice": null, "Final_FR_Notice": "<a href=\"https://semspub.epa.gov/src/document/11/189620\" target=\"_blank\">09/08/1983 (PDF)</a>", "NOID_FR_Notice": null, "Restoration_FR_Notice_Jumper_Page": null, "Site_has_had_a_Partial_Deletion": "No", "CreationDate": null, "Creator": null, "EditDate": null, "Editor": null, "ObjectId2": 1479, "dma_county": "Harris"}}, {"type": "Feature", "id": 1481, "geometry": {"type": "Point", "coordinates": [-95.456669, 30.331669]}, "properties": {"OBJECTID": null, "Site_Name": "United Creosoting Co.", "Site_Score": 37.29, "Site_EPA_ID": "TXD980745574", "SEMS_ID": 602803, "SITS_ID": 785, "Region_ID": 6, "State": "Texas", "City": "Conroe", "County": "Montgomery", "Status": "NPL Site", "Longitude": -95.456669, "Latitude": 30.331669, "Proposed_Date": "09/08/1983", "Listing_Date": "09/21/1984", "Construction_Completion_Date": "09/30/1999", "Construction_Completion_Number": 670, "NOID_Date": null, "Deletion_Date": null, "Site_Listing_Narrative": "<a href=\"https://semspub.epa.gov/src/document/06/300369\" target=\"_blank\">TXD980745574 (PDF)</a>", "Site_Progress_Profile": "<a href=\"https://cumulis.epa.gov/supercpad/cursites/csitinfo.cfm?id=0602803\" target=\"_blank\">United Creosoting Co.</a>", "Notice_of_Data_Availability": null, "Proposed_FR_Notice": "<a href=\"https://semspub.epa.gov/src/document/11/189640\" target=\"_blank\">09/08/1983 (PDF)</a>", "Deletion_FR_Notice": null, "Final_FR_Notice": "<a href=\"https://semspub.epa.gov/src/document/11/189627\" target=\"_blank\">09/21/1984 (PDF)</a>", "NOID_FR_Notice": null, "Restoration_FR_Notice_Jumper_Page": null, "Site_has_had_a_Partial_Deletion": "No", "CreationDate": null, "Creator": null, "EditDate": null, "Editor": null, "ObjectId2": 1481, "dma_county": "Montgomery"}}, {"type": "Feature", "id": 1482, "geometry": {"type": "Point", "coordinates": [-95.25, 29.66]}, "properties": {"OBJECTID": null, "Site_Name": "Geneva Industries/Fuhrmann Energy", "Site_Score": 59.46, "Site_EPA_ID": "TXD980748453", "SEMS_ID": 602809, "SITS_ID": 787, "Region_ID": 6, "State": "Texas", "City": "Houston", "County": "Harris", "Status": "NPL Site", "Longitude": -95.25, "Latitude": 29.66, "Proposed_Date": "09/08/1983", "Listing_Date": "09/21/1984", "Construction_Completion_Date": "09/14/1993", "Construction_Completion_Number": 191, "NOID_Date": null, "Deletion_Date": null, "Site_Listing_Narrative": "<a href=\"https://semspub.epa.gov/src/document/06/300370\" target=\"_blank\">TXD980748453 (PDF)</a>", "Site_Progress_Profile": "<a href=\"https://cumulis.epa.gov/supercpad/cursites/csitinfo.cfm?id=0602809\" target=\"_blank\">Geneva Industries/Fuhrmann Energy</a>", "Notice_of_Data_Availability": null, "Proposed_FR_Notice": "<a href=\"https://semspub.epa.gov/src/document/11/189640\" target=\"_blank\">09/08/1983 (PDF)</a>", "Deletion_FR_Notice": null, "Final_FR_Notice": "<a href=\"https://semspub.epa.gov/src/document/11/189627\" target=\"_blank\">09/21/1984 (PDF)</a>", "NOID_FR_Notice": null, "Restoration_FR_Notice_Jumper_Page": null, "Site_has_had_a_Partial_Deletion": "<a href=\"https://www.epa.gov/superfund/partially-deleted-national-priorities-list-npl-sites-site-name\" target=\"_blank\">Yes</a>", "CreationDate": null, "Creator": null, "EditDate": null, "Editor": null, "ObjectId2": 1482, "dma_county": "Harris"}}, {"type": "Feature", "id": 1487, "geometry": {"type": "Point", "coordinates": [-95.203331, 29.57]}, "properties": {"OBJECTID": null, "Site_Name": "Brio Refining, Inc.", "Site_Score": 50.38, "Site_EPA_ID": "TXD980625453", "SEMS_ID": 602601, "SITS_ID": 792, "Region_ID": 6, "State": "Texas", "City": "Friendswood", "County": "Harris", "Status": "Deleted NPL Site", "Longitude": -95.203331, "Latitude": 29.57, "Proposed_Date": "10/15/1984", "Listing_Date": "03/31/1989", "Construction_Completion_Date": "04/28/2004", "Construction_Completion_Number": 897, "NOID_Date": "06/23/2006", "Deletion_Date": "12/28/2006", "Site_Listing_Narrative": "<a href=\"https://semspub.epa.gov/src/document/06/300375\" target=\"_blank\">TXD980625453 (PDF)</a>", "Site_Progress_Profile": "<a href=\"https://cumulis.epa.gov/supercpad/cursites/csitinfo.cfm?id=0602601\" target=\"_blank\">Brio Refining, Inc.</a>", "Notice_of_Data_Availability": null, "Proposed_FR_Notice": "<a href=\"https://semspub.epa.gov/src/document/11/189641\" target=\"_blank\">10/15/1984 (PDF)</a>", "Deletion_FR_Notice": "<a href=\"http://www.gpo.gov/fdsys/pkg/FR-2006-12-28/pdf/E6-22298.pdf\" target=\"_blank\">12/28/2006 (PDF)</a>", "Final_FR_Notice": "<a href=\"https://semspub.epa.gov/src/document/11/189631\" target=\"_blank\">03/31/1989 (PDF)</a>", "NOID_FR_Notice": "<a href=\"http://www.gpo.gov/fdsys/pkg/FR-2006-06-23/pdf/06-5569.pdf\" target=\"_blank\">06/23/2006 (PDF)</a>", "Restoration_FR_Notice_Jumper_Page": null, "Site_has_had_a_Partial_Deletion": "No", "CreationDate": null, "Creator": null, "EditDate": null, "Editor": null, "ObjectId2": 1487, "dma_county": "Harris"}}, {"type": "Feature", "id": 1490, "geometry": {"type": "Point", "coordinates": [-95.398611, 29.678889]}, "properties": {"OBJECTID": null, "Site_Name": "Sol Lynn/Industrial Transformers", "Site_Score": 39.65, "Site_EPA_ID": "TXD980873327", "SEMS_ID": 602954, "SITS_ID": 795, "Region_ID": 6, "State": "Texas", "City": "Houston", "County": "Harris", "Status": "NPL Site", "Longitude": -95.398611, "Latitude": 29.678889, "Proposed_Date": "10/15/1984", "Listing_Date": "03/31/1989", "Construction_Completion_Date": "09/29/1993", "Construction_Completion_Number": 213, "NOID_Date": null, "Deletion_Date": null, "Site_Listing_Narrative": "<a href=\"https://semspub.epa.gov/src/document/06/300378\" target=\"_blank\">TXD980873327 (PDF)</a>", "Site_Progress_Profile": "<a href=\"https://cumulis.epa.gov/supercpad/cursites/csitinfo.cfm?id=0602954\" target=\"_blank\">Sol Lynn/Industrial Transformers</a>", "Notice_of_Data_Availability": null, "Proposed_FR_Notice": "<a href=\"https://semspub.epa.gov/src/document/11/189641\" target=\"_blank\">10/15/1984 (PDF)</a>", "Deletion_FR_Notice": null, "Final_FR_Notice": "<a href=\"https://semspub.epa.gov/src/document/11/189631\" target=\"_blank\">03/31/1989 (PDF)</a>", "NOID_FR_Notice": null, "Restoration_FR_Notice_Jumper_Page": null, "Site_has_had_a_Partial_Deletion": "No", "CreationDate": null, "Creator": null, "EditDate": null, "Editor": null, "ObjectId2": 1490, "dma_county": "Harris"}}, {"type": "Feature", "id": 1506, "geometry": {"type": "Point", "coordinates": [-94.688061, 29.92]}, "properties": {"OBJECTID": null, "Site_Name": "Petro-Chemical Systems, Inc. (Turtle Bayou)", "Site_Score": 29.94, "Site_EPA_ID": "TXD980873350", "SEMS_ID": 602957, "SITS_ID": 797, "Region_ID": 6, "State": "Texas", "City": "Liberty County", "County": "Liberty", "Status": "NPL Site", "Longitude": -94.688061, "Latitude": 29.92, "Proposed_Date": "10/15/1984", "Listing_Date": "06/10/1986", "Construction_Completion_Date": "09/30/2010", "Construction_Completion_Number": 1097, "NOID_Date": null, "Deletion_Date": null, "Site_Listing_Narrative": "<a href=\"https://semspub.epa.gov/src/document/06/300380\" target=\"_blank\">TXD980873350 (PDF)</a>", "Site_Progress_Profile": "<a href=\"https://cumulis.epa.gov/supercpad/cursites/csitinfo.cfm?id=0602957\" target=\"_blank\">Petro-Chemical Systems, Inc. (Turtle Bayou)</a>", "Notice_of_Data_Availability": null, "Proposed_FR_Notice": "<a href=\"https://semspub.epa.gov/src/document/11/189641\" target=\"_blank\">10/15/1984 (PDF)</a>", "Deletion_FR_Notice": null, "Final_FR_Notice": "<a href=\"https://semspub.epa.gov/src/document/11/189628\" target=\"_blank\">06/10/1986 (PDF)</a>", "NOID_FR_Notice": null, "Restoration_FR_Notice_Jumper_Page": null, "Site_has_had_a_Partial_Deletion": "No", "CreationDate": null, "Creator": null, "EditDate": null, "Editor": null, "ObjectId2": 1506, "dma_county": "Liberty"}}, {"type": "Feature", "id": 1507, "geometry": {"type": "Point", "coordinates": [-95.349169, 29.806669]}, "properties": {"OBJECTID": null, "Site_Name": "North Cavalcade Street", "Site_Score": 37.08, "Site_EPA_ID": "TXD980873343", "SEMS_ID": 602956, "SITS_ID": 798, "Region_ID": 6, "State": "Texas", "City": "Houston", "County": "Harris", "Status": "NPL Site", "Longitude": -95.349169, "Latitude": 29.806669, "Proposed_Date": "10/15/1984", "Listing_Date": "06/10/1986", "Construction_Completion_Date": "08/31/2011", "Construction_Completion_Number": 1103, "NOID_Date": null, "Deletion_Date": null, "Site_Listing_Narrative": "<a href=\"https://semspub.epa.gov/src/document/06/300381\" target=\"_blank\">TXD980873343 (PDF)</a>", "Site_Progress_Profile": "<a href=\"https://cumulis.epa.gov/supercpad/cursites/csitinfo.cfm?id=0602956\" target=\"_blank\">North Cavalcade Street</a>", "Notice_of_Data_Availability": null, "Proposed_FR_Notice": "<a href=\"https://semspub.epa.gov/src/document/11/189641\" target=\"_blank\">10/15/1984 (PDF)</a>", "Deletion_FR_Notice": null, "Final_FR_Notice": "<a href=\"https://semspub.epa.gov/src/document/11/189628\" target=\"_blank\">06/10/1986 (PDF)</a>", "NOID_FR_Notice": null, "Restoration_FR_Notice_Jumper_Page": null, "Site_has_had_a_Partial_Deletion": "No", "CreationDate": null, "Creator": null, "EditDate": null, "Editor": null, "ObjectId2": 1507, "dma_county": "Harris"}}, {"type": "Feature", "id": 1508, "geometry": {"type": "Point", "coordinates": [-95.347781, 29.798331]}, "properties": {"OBJECTID": null, "Site_Name": "South Cavalcade Street", "Site_Score": 38.69, "Site_EPA_ID": "TXD980810386", "SEMS_ID": 602895, "SITS_ID": 799, "Region_ID": 6, "State": "Texas", "City": "Houston", "County": "Harris", "Status": "NPL Site", "Longitude": -95.347781, "Latitude": 29.798331, "Proposed_Date": "10/15/1984", "Listing_Date": "06/10/1986", "Construction_Completion_Date": "09/15/2000", "Construction_Completion_Number": 708, "NOID_Date": null, "Deletion_Date": null, "Site_Listing_Narrative": "<a href=\"https://semspub.epa.gov/src/document/06/300382\" target=\"_blank\">TXD980810386 (PDF)</a>", "Site_Progress_Profile": "<a href=\"https://cumulis.epa.gov/supercpad/cursites/csitinfo.cfm?id=0602895\" target=\"_blank\">South Cavalcade Street</a>", "Notice_of_Data_Availability": null, "Proposed_FR_Notice": "<a href=\"https://semspub.epa.gov/src/document/11/189641\" target=\"_blank\">10/15/1984 (PDF)</a>", "Deletion_FR_Notice": null, "Final_FR_Notice": "<a href=\"https://semspub.epa.gov/src/document/11/189628\" target=\"_blank\">06/10/1986 (PDF)</a>", "NOID_FR_Notice": null, "Restoration_FR_Notice_Jumper_Page": null, "Site_has_had_a_Partial_Deletion": "No", "CreationDate": null, "Creator": null, "EditDate": null, "Editor": null, "ObjectId2": 1508, "dma_county": "Harris"}}, {"type": "Feature", "id": 1512, "geometry": {"type": "Point", "coordinates": [-96.1357, 30.2074]}, "properties": {"OBJECTID": null, "Site_Name": "Sheridan Disposal Services", "Site_Score": 30.16, "Site_EPA_ID": "TXD062132147", "SEMS_ID": 602108, "SITS_ID": 803, "Region_ID": 6, "State": "Texas", "City": "Hempstead", "County": "Waller", "Status": "NPL Site", "Longitude": -96.1357, "Latitude": 30.2074, "Proposed_Date": "06/10/1986", "Listing_Date": "03/31/1989", "Construction_Completion_Date": "05/01/2006", "Construction_Completion_Number": 971, "NOID_Date": null, "Deletion_Date": null, "Site_Listing_Narrative": "<a href=\"https://semspub.epa.gov/src/document/06/300386\" target=\"_blank\">TXD062132147 (PDF)</a>", "Site_Progress_Profile": "<a href=\"https://cumulis.epa.gov/supercpad/cursites/csitinfo.cfm?id=0602108\" target=\"_blank\">Sheridan Disposal Services</a>", "Notice_of_Data_Availability": null, "Proposed_FR_Notice": "<a href=\"https://semspub.epa.gov/src/document/11/189644\" target=\"_blank\">06/10/1986 (PDF)</a>", "Deletion_FR_Notice": null, "Final_FR_Notice": "<a href=\"https://semspub.epa.gov/src/document/11/189631\" target=\"_blank\">03/31/1989 (PDF)</a>", "NOID_FR_Notice": null, "Restoration_FR_Notice_Jumper_Page": null, "Site_has_had_a_Partial_Deletion": "No", "CreationDate": null, "Creator": null, "EditDate": null, "Editor": null, "ObjectId2": 1512, "dma_county": "Waller"}}, {"type": "Feature", "id": 1513, "geometry": {"type": "Point", "coordinates": [-95.2047, 29.5686]}, "properties": {"OBJECTID": null, "Site_Name": "Dixie Oil Processors, Inc.", "Site_Score": 34.21, "Site_EPA_ID": "TXD089793046", "SEMS_ID": 600006, "SITS_ID": 804, "Region_ID": 6, "State": "Texas", "City": "Friendswood", "County": "Harris", "Status": "Deleted NPL Site", "Longitude": -95.2047, "Latitude": 29.5686, "Proposed_Date": "06/24/1988", "Listing_Date": "10/04/1989", "Construction_Completion_Date": "06/09/1993", "Construction_Completion_Number": 168, "NOID_Date": "06/22/2006", "Deletion_Date": "08/21/2006", "Site_Listing_Narrative": "<a href=\"https://semspub.epa.gov/src/document/06/300387\" target=\"_blank\">TXD089793046 (PDF)</a>", "Site_Progress_Profile": "<a href=\"https://cumulis.epa.gov/supercpad/cursites/csitinfo.cfm?id=0600006\" target=\"_blank\">Dixie Oil Processors, Inc.</a>", "Notice_of_Data_Availability": null, "Proposed_FR_Notice": "<a href=\"https://semspub.epa.gov/src/document/11/189648\" target=\"_blank\">06/24/1988 (PDF)</a>", "Deletion_FR_Notice": "<a href=\"http://www.gpo.gov/fdsys/pkg/FR-2006-06-22/pdf/E6-9748.pdf\" target=\"_blank\">08/21/2006 (PDF)</a>", "Final_FR_Notice": "<a href=\"https://semspub.epa.gov/src/document/11/189633\" target=\"_blank\">10/04/1989 (PDF)</a>", "NOID_FR_Notice": "<a href=\"http://www.gpo.gov/fdsys/pkg/FR-2006-06-22/pdf/E6-9747.pdf\" target=\"_blank\">06/22/2006 (PDF)</a>", "Restoration_FR_Notice_Jumper_Page": null, "Site_has_had_a_Partial_Deletion": "No", "CreationDate": null, "Creator": null, "EditDate": null, "Editor": null, "ObjectId2": 1513, "dma_county": "Harris"}}, {"type": "Feature", "id": 1516, "geometry": {"type": "Point", "coordinates": [-96.562222, 28.650833]}, "properties": {"OBJECTID": null, "Site_Name": "ALCOA (Point Comfort)/Lavaca Bay", "Site_Score": 50, "Site_EPA_ID": "TXD008123168", "SEMS_ID": 601752, "SITS_ID": 1400, "Region_ID": 6, "State": "Texas", "City": "Point Comfort", "County": "Calhoun", "Status": "NPL Site", "Longitude": -96.562222, "Latitude": 28.650833, "Proposed_Date": "06/23/1993", "Listing_Date": "02/23/1994", "Construction_Completion_Date": "07/23/2007", "Construction_Completion_Number": 1013, "NOID_Date": null, "Deletion_Date": null, "Site_Listing_Narrative": "<a href=\"https://semspub.epa.gov/src/document/06/300283\" target=\"_blank\">TXD008123168 (PDF)</a>", "Site_Progress_Profile": "<a href=\"https://cumulis.epa.gov/supercpad/cursites/csitinfo.cfm?id=0601752\" target=\"_blank\">ALCOA (Point Comfort)/Lavaca Bay</a>", "Notice_of_Data_Availability": null, "Proposed_FR_Notice": "<a href=\"https://semspub.epa.gov/src/document/11/189656\" target=\"_blank\">06/23/1993 (PDF)</a>", "Deletion_FR_Notice": null, "Final_FR_Notice": "<a href=\"https://semspub.epa.gov/src/document/06/300397\" target=\"_blank\">02/23/1994 (PDF)</a>", "NOID_FR_Notice": null, "Restoration_FR_Notice_Jumper_Page": null, "Site_has_had_a_Partial_Deletion": "No", "CreationDate": null, "Creator": null, "EditDate": null, "Editor": null, "ObjectId2": 1516, "dma_county": "Calhoun"}}, {"type": "Feature", "id": 1538, "geometry": {"type": "Point", "coordinates": [-94.941667, 29.356667]}, "properties": {"OBJECTID": null, "Site_Name": "Tex-Tin Corp.", "Site_Score": 50, "Site_EPA_ID": "TXD062113329", "SEMS_ID": 602105, "SITS_ID": 1478, "Region_ID": 6, "State": "Texas", "City": "Texas City", "County": "Galveston", "Status": "NPL Site", "Longitude": -94.941667, "Latitude": 29.356667, "Proposed_Date": "06/17/1996", "Listing_Date": "09/18/1998", "Construction_Completion_Date": "09/20/2004", "Construction_Completion_Number": 912, "NOID_Date": null, "Deletion_Date": null, "Site_Listing_Narrative": "<a href=\"https://semspub.epa.gov/src/document/06/300290\" target=\"_blank\">TXD062113329 (PDF)</a>", "Site_Progress_Profile": "<a href=\"https://cumulis.epa.gov/supercpad/cursites/csitinfo.cfm?id=0602105\" target=\"_blank\">Tex-Tin Corp.</a>", "Notice_of_Data_Availability": null, "Proposed_FR_Notice": "<a href=\"http://www.gpo.gov/fdsys/pkg/FR-1996-06-17/pdf/96-15033.pdf\" target=\"_blank\">06/17/1996 (PDF)</a>", "Deletion_FR_Notice": null, "Final_FR_Notice": "<a href=\"http://www.gpo.gov/fdsys/pkg/FR-1998-09-18/pdf/98-25087.pdf\" target=\"_blank\">09/18/1998 (PDF)</a>", "NOID_FR_Notice": null, "Restoration_FR_Notice_Jumper_Page": null, "Site_has_had_a_Partial_Deletion": "<a href=\"https://www.epa.gov/superfund/partially-deleted-national-priorities-list-npl-sites-site-name\" target=\"_blank\">Yes</a>", "CreationDate": null, "Creator": null, "EditDate": null, "Editor": null, "ObjectId2": 1538, "dma_county": "Galveston"}}, {"type": "Feature", "id": 1630, "geometry": {"type": "Point", "coordinates": [-95.331667, 29.767778]}, "properties": {"OBJECTID": null, "Site_Name": "Many Diversified Interests, Inc.", "Site_Score": 32.07, "Site_EPA_ID": "TXD008083404", "SEMS_ID": 605008, "SITS_ID": 1533, "Region_ID": 6, "State": "Texas", "City": "Houston", "County": "Harris", "Status": "NPL Site", "Longitude": -95.331667, "Latitude": 29.767778, "Proposed_Date": "09/29/1998", "Listing_Date": "01/19/1999", "Construction_Completion_Date": "08/31/2009", "Construction_Completion_Number": 1069, "NOID_Date": null, "Deletion_Date": null, "Site_Listing_Narrative": "<a href=\"https://semspub.epa.gov/src/document/06/300298\" target=\"_blank\">TXD008083404 (PDF)</a>", "Site_Progress_Profile": "<a href=\"https://cumulis.epa.gov/supercpad/cursites/csitinfo.cfm?id=0605008\" target=\"_blank\">Many Diversified Interests, Inc.</a>", "Notice_of_Data_Availability": null, "Proposed_FR_Notice": "<a href=\"http://www.gpo.gov/fdsys/pkg/FR-1998-09-29/pdf/98-25890.pdf\" target=\"_blank\">09/29/1998 (PDF)</a>", "Deletion_FR_Notice": null, "Final_FR_Notice": "<a href=\"http://www.gpo.gov/fdsys/pkg/FR-1999-01-19/pdf/99-1020.pdf\" target=\"_blank\">01/19/1999 (PDF)</a>", "NOID_FR_Notice": null, "Restoration_FR_Notice_Jumper_Page": null, "Site_has_had_a_Partial_Deletion": "<a href=\"https://www.epa.gov/superfund/partially-deleted-national-priorities-list-npl-sites-site-name\" target=\"_blank\">Yes</a>", "CreationDate": null, "Creator": null, "EditDate": null, "Editor": null, "ObjectId2": 1630, "dma_county": "Harris"}}, {"type": "Feature", "id": 1636, "geometry": {"type": "Point", "coordinates": [-94.902778, 29.333056]}, "properties": {"OBJECTID": null, "Site_Name": "Malone Service Company, Inc.", "Site_Score": 50, "Site_EPA_ID": "TXD980864789", "SEMS_ID": 602922, "SITS_ID": 1611, "Region_ID": 6, "State": "Texas", "City": "Texas City", "County": "Galveston", "Status": "NPL Site", "Longitude": -94.902778, "Latitude": 29.333056, "Proposed_Date": "08/24/2000", "Listing_Date": "06/14/2001", "Construction_Completion_Date": "06/29/2018", "Construction_Completion_Number": 1200, "NOID_Date": null, "Deletion_Date": null, "Site_Listing_Narrative": "<a href=\"https://semspub.epa.gov/src/document/06/300314\" target=\"_blank\">TXD980864789 (PDF)</a>", "Site_Progress_Profile": "<a href=\"https://cumulis.epa.gov/supercpad/cursites/csitinfo.cfm?id=0602922\" target=\"_blank\">Malone Service Company, Inc.</a>", "Notice_of_Data_Availability": null, "Proposed_FR_Notice": "<a href=\"http://www.gpo.gov/fdsys/pkg/FR-2000-08-24/pdf/00-21524.pdf\" target=\"_blank\">08/24/2000 (PDF)</a>", "Deletion_FR_Notice": null, "Final_FR_Notice": "<a href=\"http://www.gpo.gov/fdsys/pkg/FR-2001-06-14/pdf/01-14616.pdf\" target=\"_blank\">06/14/2001 (PDF)</a>", "NOID_FR_Notice": null, "Restoration_FR_Notice_Jumper_Page": null, "Site_has_had_a_Partial_Deletion": "No", "CreationDate": null, "Creator": null, "EditDate": null, "Editor": null, "ObjectId2": 1636, "dma_county": "Galveston"}}, {"type": "Feature", "id": 1638, "geometry": {"type": "Point", "coordinates": [-95.114583, 29.731944]}, "properties": {"OBJECTID": null, "Site_Name": "Patrick Bayou", "Site_Score": 47.83, "Site_EPA_ID": "TX0000605329", "SEMS_ID": 605329, "SITS_ID": 1638, "Region_ID": 6, "State": "Texas", "City": "Deer Park", "County": "Harris", "Status": "NPL Site", "Longitude": -95.114583, "Latitude": 29.731944, "Proposed_Date": "06/14/2001", "Listing_Date": "09/05/2002", "Construction_Completion_Date": null, "Construction_Completion_Number": 0, "NOID_Date": null, "Deletion_Date": null, "Site_Listing_Narrative": "<a href=\"https://semspub.epa.gov/src/document/06/300317\" target=\"_blank\">TX0000605329 (PDF)</a>", "Site_Progress_Profile": "<a href=\"https://cumulis.epa.gov/supercpad/cursites/csitinfo.cfm?id=0605329\" target=\"_blank\">Patrick Bayou</a>", "Notice_of_Data_Availability": null, "Proposed_FR_Notice": "<a href=\"http://www.gpo.gov/fdsys/pkg/FR-2001-06-14/pdf/01-14617.pdf\" target=\"_blank\">06/14/2001 (PDF)</a>", "Deletion_FR_Notice": null, "Final_FR_Notice": "<a href=\"http://www.gpo.gov/fdsys/pkg/FR-2002-09-05/pdf/02-22538.pdf\" target=\"_blank\">09/05/2002 (PDF)</a>", "NOID_FR_Notice": null, "Restoration_FR_Notice_Jumper_Page": null, "Site_has_had_a_Partial_Deletion": "No", "CreationDate": null, "Creator": null, "EditDate": null, "Editor": null, "ObjectId2": 1638, "dma_county": "Harris"}}, {"type": "Feature", "id": 1640, "geometry": {"type": "Point", "coordinates": [-95.289656, 28.966847]}, "properties": {"OBJECTID": null, "Site_Name": "Gulfco Marine Maintenance", "Site_Score": 50, "Site_EPA_ID": "TXD055144539", "SEMS_ID": 602027, "SITS_ID": 1663, "Region_ID": 6, "State": "Texas", "City": "Freeport", "County": "Brazoria", "Status": "NPL Site", "Longitude": -95.289656, "Latitude": 28.966847, "Proposed_Date": "09/05/2002", "Listing_Date": "04/30/2003", "Construction_Completion_Date": "09/29/2011", "Construction_Completion_Number": 1119, "NOID_Date": null, "Deletion_Date": null, "Site_Listing_Narrative": "<a href=\"https://semspub.epa.gov/src/document/06/300320\" target=\"_blank\">TXD055144539 (PDF)</a>", "Site_Progress_Profile": "<a href=\"https://cumulis.epa.gov/supercpad/cursites/csitinfo.cfm?id=0602027\" target=\"_blank\">Gulfco Marine Maintenance</a>", "Notice_of_Data_Availability": null, "Proposed_FR_Notice": "<a href=\"http://www.gpo.gov/fdsys/pkg/FR-2002-09-05/pdf/02-22539.pdf\" target=\"_blank\">09/05/2002 (PDF)</a>", "Deletion_FR_Notice": null, "Final_FR_Notice": "<a href=\"http://www.gpo.gov/fdsys/pkg/FR-2003-04-30/pdf/03-10648.pdf\" target=\"_blank\">04/30/2003 (PDF)</a>", "NOID_FR_Notice": null, "Restoration_FR_Notice_Jumper_Page": null, "Site_has_had_a_Partial_Deletion": "No", "CreationDate": null, "Creator": null, "EditDate": null, "Editor": null, "ObjectId2": 1640, "dma_county": "Brazoria"}}, {"type": "Feature", "id": 1652, "geometry": {"type": "Point", "coordinates": [-95.584319, 29.90465]}, "properties": {"OBJECTID": null, "Site_Name": "Jones Road Ground Water Plume", "Site_Score": 46.5, "Site_EPA_ID": "TXN000605460", "SEMS_ID": 605460, "SITS_ID": 1678, "Region_ID": 6, "State": "Texas", "City": "Houston", "County": "Harris", "Status": "NPL Site", "Longitude": -95.584319, "Latitude": 29.90465, "Proposed_Date": "04/30/2003", "Listing_Date": "09/29/2003", "Construction_Completion_Date": null, "Construction_Completion_Number": 0, "NOID_Date": null, "Deletion_Date": null, "Site_Listing_Narrative": "<a href=\"https://semspub.epa.gov/src/document/06/300321\" target=\"_blank\">TXN000605460 (PDF)</a>", "Site_Progress_Profile": "<a href=\"https://cumulis.epa.gov/supercpad/cursites/csitinfo.cfm?id=0605460\" target=\"_blank\">Jones Road Ground Water Plume</a>", "Notice_of_Data_Availability": null, "Proposed_FR_Notice": "<a href=\"http://www.gpo.gov/fdsys/pkg/FR-2003-04-30/pdf/03-10649.pdf\" target=\"_blank\">04/30/2003 (PDF)</a>", "Deletion_FR_Notice": null, "Final_FR_Notice": "<a href=\"http://www.gpo.gov/fdsys/pkg/FR-2003-09-29/pdf/03-24406.pdf\" target=\"_blank\">09/29/2003 (PDF)</a>", "NOID_FR_Notice": null, "Restoration_FR_Notice_Jumper_Page": null, "Site_has_had_a_Partial_Deletion": "No", "CreationDate": null, "Creator": null, "EditDate": null, "Editor": null, "ObjectId2": 1652, "dma_county": "Harris"}}, {"type": "Feature", "id": 1653, "geometry": {"type": "Point", "coordinates": [-95.435428, 30.318744]}, "properties": {"OBJECTID": null, "Site_Name": "Conroe Creosoting Company", "Site_Score": 48, "Site_EPA_ID": "TXD008091951", "SEMS_ID": 601732, "SITS_ID": 1682, "Region_ID": 6, "State": "Texas", "City": "Conroe", "County": "Montgomery", "Status": "NPL Site", "Longitude": -95.435428, "Latitude": 30.318744, "Proposed_Date": "04/30/2003", "Listing_Date": "09/29/2003", "Construction_Completion_Date": "09/30/2003", "Construction_Completion_Number": 880, "NOID_Date": null, "Deletion_Date": null, "Site_Listing_Narrative": "<a href=\"https://semspub.epa.gov/src/document/06/300322\" target=\"_blank\">TXD008091951 (PDF)</a>", "Site_Progress_Profile": "<a href=\"https://cumulis.epa.gov/supercpad/cursites/csitinfo.cfm?id=0601732\" target=\"_blank\">Conroe Creosoting Company</a>", "Notice_of_Data_Availability": null, "Proposed_FR_Notice": "<a href=\"http://www.gpo.gov/fdsys/pkg/FR-2003-04-30/pdf/03-10649.pdf\" target=\"_blank\">04/30/2003 (PDF)</a>", "Deletion_FR_Notice": null, "Final_FR_Notice": "<a href=\"http://www.gpo.gov/fdsys/pkg/FR-2003-09-29/pdf/03-24406.pdf\" target=\"_blank\">09/29/2003 (PDF)</a>", "NOID_FR_Notice": null, "Restoration_FR_Notice_Jumper_Page": null, "Site_has_had_a_Partial_Deletion": "No", "CreationDate": null, "Creator": null, "EditDate": null, "Editor": null, "ObjectId2": 1653, "dma_county": "Montgomery"}}, {"type": "Feature", "id": 1660, "geometry": {"type": "Point", "coordinates": [-95.0625, 29.7944]}, "properties": {"OBJECTID": null, "Site_Name": "San Jacinto River Waste Pits", "Site_Score": 50, "Site_EPA_ID": "TXN000606611", "SEMS_ID": 606611, "SITS_ID": 1773, "Region_ID": 6, "State": "Texas", "City": "Channelview", "County": "Harris", "Status": "NPL Site", "Longitude": -95.0625, "Latitude": 29.7944, "Proposed_Date": "09/19/2007", "Listing_Date": "03/19/2008", "Construction_Completion_Date": null, "Construction_Completion_Number": 0, "NOID_Date": null, "Deletion_Date": null, "Site_Listing_Narrative": "<a href=\"https://semspub.epa.gov/src/document/06/300055\" target=\"_blank\">TXN000606611 (PDF)</a>", "Site_Progress_Profile": "<a href=\"https://cumulis.epa.gov/supercpad/cursites/csitinfo.cfm?id=0606611\" target=\"_blank\">San Jacinto River Waste Pits</a>", "Notice_of_Data_Availability": null, "Proposed_FR_Notice": "<a href=\"http://www.gpo.gov/fdsys/pkg/FR-2007-09-19/pdf/E7-18154.pdf\" target=\"_blank\">09/19/2007 (PDF)</a>", "Deletion_FR_Notice": null, "Final_FR_Notice": "<a href=\"http://www.gpo.gov/fdsys/pkg/FR-2008-03-19/pdf/E8-5557.pdf\" target=\"_blank\">03/19/2008 (PDF)</a>", "NOID_FR_Notice": null, "Restoration_FR_Notice_Jumper_Page": null, "Site_has_had_a_Partial_Deletion": "No", "CreationDate": null, "Creator": null, "EditDate": null, "Editor": null, "ObjectId2": 1660, "dma_county": "Harris"}}, {"type": "Feature", "id": 1698, "geometry": {"type": "Point", "coordinates": [-95.221528, 29.718389]}, "properties": {"OBJECTID": null, "Site_Name": "US Oil Recovery", "Site_Score": 50, "Site_EPA_ID": "TXN000607093", "SEMS_ID": 607093, "SITS_ID": 1854, "Region_ID": 6, "State": "Texas", "City": "Pasadena", "County": "Harris", "Status": "NPL Site", "Longitude": -95.221528, "Latitude": 29.718389, "Proposed_Date": "09/16/2011", "Listing_Date": "09/18/2012", "Construction_Completion_Date": null, "Construction_Completion_Number": 0, "NOID_Date": null, "Deletion_Date": null, "Site_Listing_Narrative": "<a href=\"https://semspub.epa.gov/src/document/06/300061\" target=\"_blank\">TXN000607093 (PDF)</a>", "Site_Progress_Profile": "<a href=\"https://cumulis.epa.gov/supercpad/cursites/csitinfo.cfm?id=0607093\" target=\"_blank\">US Oil Recovery</a>", "Notice_of_Data_Availability": null, "Proposed_FR_Notice": "<a href=\"http://www.gpo.gov/fdsys/pkg/FR-2011-09-16/pdf/2011-23651.pdf\" target=\"_blank\">09/16/2011 (PDF)</a>", "Deletion_FR_Notice": null, "Final_FR_Notice": "<a href=\"http://www.gpo.gov/fdsys/pkg/FR-2012-09-18/pdf/2012-22851.pdf\" target=\"_blank\">09/18/2012 (PDF)</a>", "NOID_FR_Notice": null, "Restoration_FR_Notice_Jumper_Page": null, "Site_has_had_a_Partial_Deletion": "No", "CreationDate": null, "Creator": null, "EditDate": null, "Editor": null, "ObjectId2": 1698, "dma_county": "Harris"}}]}